{"fetched_at":"2026-07-15T06:36:07.156Z","source":"https://celestrak.org/NORAD/elements/gp.php?NAME=HULIANWANG&FORMAT=JSON","constellation":"guowang","records":[{"OBJECT_NAME":"HULIANWANG DIGUI-108","OBJECT_ID":"2025-285D","EPOCH":"2026-07-14T19:36:22.633632","CLASSIFICATION_TYPE":"U","MEAN_MOTION":13.29325816,"ECCENTRICITY":0.00009962,"INCLINATION":50.0057,"RA_OF_ASC_NODE":46.9034,"ARG_OF_PERICENTER":35.1841,"MEAN_ANOMALY":324.9097,"EPHEMERIS_TYPE":0,"NORAD_CAT_ID":66918,"ELEMENT_SET_NO":999,"REV_AT_EPOCH":2973,"BSTAR":0.00004283069,"MEAN_MOTION_DOT":-0.00000104,"MEAN_MOTION_DDOT":0},{"OBJECT_NAME":"HULIANWANG DIGUI-109","OBJECT_ID":"2025-285E","EPOCH":"2026-07-14T23:00:41.741280","CLASSIFICATION_TYPE":"U","MEAN_MOTION":13.29316511,"ECCENTRICITY":0.00009355,"INCLINATION":50.0083,"RA_OF_ASC_NODE":46.3646,"ARG_OF_PERICENTER":44.9364,"MEAN_ANOMALY":315.1584,"EPHEMERIS_TYPE":0,"NORAD_CAT_ID":66919,"ELEMENT_SET_NO":999,"REV_AT_EPOCH":2976,"BSTAR":0.000040823201,"MEAN_MOTION_DOT":-0.00000105,"MEAN_MOTION_DDOT":0},{"OBJECT_NAME":"HULIANWANG DIGUI-110","OBJECT_ID":"2025-285F","EPOCH":"2026-07-14T19:12:22.747392","CLASSIFICATION_TYPE":"U","MEAN_MOTION":13.29326377,"ECCENTRICITY":0.00009359,"INCLINATION":50.0125,"RA_OF_ASC_NODE":46.9179,"ARG_OF_PERICENTER":35.5569,"MEAN_ANOMALY":324.5366,"EPHEMERIS_TYPE":0,"NORAD_CAT_ID":66920,"ELEMENT_SET_NO":999,"REV_AT_EPOCH":2973,"BSTAR":0.000003993148,"MEAN_MOTION_DOT":-0.00000122,"MEAN_MOTION_DDOT":0},{"OBJECT_NAME":"HULIANWANG DIGUI-111","OBJECT_ID":"2025-285G","EPOCH":"2026-07-14T22:36:55.078560","CLASSIFICATION_TYPE":"U","MEAN_MOTION":13.29325942,"ECCENTRICITY":0.00009193,"INCLINATION":50.013,"RA_OF_ASC_NODE":46.3651,"ARG_OF_PERICENTER":38.0327,"MEAN_ANOMALY":322.061,"EPHEMERIS_TYPE":0,"NORAD_CAT_ID":66921,"ELEMENT_SET_NO":999,"REV_AT_EPOCH":2975,"BSTAR":0.000064979037,"MEAN_MOTION_DOT":-9.4e-7,"MEAN_MOTION_DDOT":0},{"OBJECT_NAME":"HULIANWANG DIGUI-112","OBJECT_ID":"2025-285H","EPOCH":"2026-07-14T20:36:34.208064","CLASSIFICATION_TYPE":"U","MEAN_MOTION":13.29325876,"ECCENTRICITY":0.00009748,"INCLINATION":50.0095,"RA_OF_ASC_NODE":46.5271,"ARG_OF_PERICENTER":34.7334,"MEAN_ANOMALY":325.3602,"EPHEMERIS_TYPE":0,"NORAD_CAT_ID":66922,"ELEMENT_SET_NO":999,"REV_AT_EPOCH":2974,"BSTAR":0.00007289863,"MEAN_MOTION_DOT":-9e-7,"MEAN_MOTION_DDOT":0},{"OBJECT_NAME":"HULIANWANG DIGUI-113","OBJECT_ID":"2025-285J","EPOCH":"2026-07-14T20:24:41.422752","CLASSIFICATION_TYPE":"U","MEAN_MOTION":13.29324267,"ECCENTRICITY":0.00009764,"INCLINATION":50.0101,"RA_OF_ASC_NODE":46.5009,"ARG_OF_PERICENTER":34.1605,"MEAN_ANOMALY":325.933,"EPHEMERIS_TYPE":0,"NORAD_CAT_ID":66923,"ELEMENT_SET_NO":999,"REV_AT_EPOCH":2974,"BSTAR":0.000050113717,"MEAN_MOTION_DOT":-0.00000101,"MEAN_MOTION_DDOT":0},{"OBJECT_NAME":"HULIANWANG DIGUI-114","OBJECT_ID":"2025-287A","EPOCH":"2026-07-14T17:12:20.649024","CLASSIFICATION_TYPE":"U","MEAN_MOTION":13.24413349,"ECCENTRICITY":0.00022917,"INCLINATION":86.4931,"RA_OF_ASC_NODE":273.0648,"ARG_OF_PERICENTER":98.903,"MEAN_ANOMALY":261.2364,"EPHEMERIS_TYPE":0,"NORAD_CAT_ID":66953,"ELEMENT_SET_NO":999,"REV_AT_EPOCH":2898,"BSTAR":0.000090921322,"MEAN_MOTION_DOT":5.4e-7,"MEAN_MOTION_DDOT":0},{"OBJECT_NAME":"HULIANWANG DIGUI-115","OBJECT_ID":"2025-287B","EPOCH":"2026-07-14T17:01:01.157952","CLASSIFICATION_TYPE":"U","MEAN_MOTION":13.24400807,"ECCENTRICITY":0.00025768,"INCLINATION":86.4946,"RA_OF_ASC_NODE":273.0966,"ARG_OF_PERICENTER":97.1928,"MEAN_ANOMALY":262.9499,"EPHEMERIS_TYPE":0,"NORAD_CAT_ID":66954,"ELEMENT_SET_NO":999,"REV_AT_EPOCH":2898,"BSTAR":0.00011556847,"MEAN_MOTION_DOT":6.4e-7,"MEAN_MOTION_DDOT":0},{"OBJECT_NAME":"HULIANWANG DIGUI-116","OBJECT_ID":"2025-287C","EPOCH":"2026-07-14T16:50:35.671200","CLASSIFICATION_TYPE":"U","MEAN_MOTION":13.24412981,"ECCENTRICITY":0.0002393,"INCLINATION":86.4886,"RA_OF_ASC_NODE":272.9598,"ARG_OF_PERICENTER":97.0421,"MEAN_ANOMALY":263.0985,"EPHEMERIS_TYPE":0,"NORAD_CAT_ID":66955,"ELEMENT_SET_NO":999,"REV_AT_EPOCH":2898,"BSTAR":0.00012203485,"MEAN_MOTION_DOT":6.7e-7,"MEAN_MOTION_DDOT":0},{"OBJECT_NAME":"HULIANWANG DIGUI-117","OBJECT_ID":"2025-287D","EPOCH":"2026-07-14T18:28:33.086496","CLASSIFICATION_TYPE":"U","MEAN_MOTION":13.24412592,"ECCENTRICITY":0.0001064,"INCLINATION":86.4946,"RA_OF_ASC_NODE":273.0652,"ARG_OF_PERICENTER":62.7407,"MEAN_ANOMALY":297.3835,"EPHEMERIS_TYPE":0,"NORAD_CAT_ID":66956,"ELEMENT_SET_NO":999,"REV_AT_EPOCH":2899,"BSTAR":0.000094045775,"MEAN_MOTION_DOT":5.5e-7,"MEAN_MOTION_DDOT":0},{"OBJECT_NAME":"HULIANWANG DIGUI-118","OBJECT_ID":"2025-287E","EPOCH":"2026-07-14T18:17:39.393600","CLASSIFICATION_TYPE":"U","MEAN_MOTION":13.24412079,"ECCENTRICITY":0.00023298,"INCLINATION":86.4921,"RA_OF_ASC_NODE":273.0087,"ARG_OF_PERICENTER":99.0771,"MEAN_ANOMALY":261.0627,"EPHEMERIS_TYPE":0,"NORAD_CAT_ID":66957,"ELEMENT_SET_NO":999,"REV_AT_EPOCH":2899,"BSTAR":0.00007508801,"MEAN_MOTION_DOT":4.7e-7,"MEAN_MOTION_DDOT":0},{"OBJECT_NAME":"HULIANWANG DIGUI-119","OBJECT_ID":"2025-295A","EPOCH":"2026-07-14T14:19:41.250144","CLASSIFICATION_TYPE":"U","MEAN_MOTION":13.29324492,"ECCENTRICITY":0.00011155,"INCLINATION":50.0041,"RA_OF_ASC_NODE":287.4772,"ARG_OF_PERICENTER":188.2077,"MEAN_ANOMALY":171.8777,"EPHEMERIS_TYPE":0,"NORAD_CAT_ID":67059,"ELEMENT_SET_NO":999,"REV_AT_EPOCH":2914,"BSTAR":0.000082492083,"MEAN_MOTION_DOT":-8.6e-7,"MEAN_MOTION_DDOT":0},{"OBJECT_NAME":"HULIANWANG DIGUI-120","OBJECT_ID":"2025-295B","EPOCH":"2026-07-14T12:07:23.125728","CLASSIFICATION_TYPE":"U","MEAN_MOTION":13.29324443,"ECCENTRICITY":0.00012073,"INCLINATION":50.0058,"RA_OF_ASC_NODE":287.6694,"ARG_OF_PERICENTER":189.2261,"MEAN_ANOMALY":170.859,"EPHEMERIS_TYPE":0,"NORAD_CAT_ID":67060,"ELEMENT_SET_NO":999,"REV_AT_EPOCH":2913,"BSTAR":0.000033014933,"MEAN_MOTION_DOT":-0.00000109,"MEAN_MOTION_DDOT":0},{"OBJECT_NAME":"HULIANWANG DIGUI-121","OBJECT_ID":"2025-295C","EPOCH":"2026-07-14T12:19:24.506976","CLASSIFICATION_TYPE":"U","MEAN_MOTION":13.29325564,"ECCENTRICITY":0.000115,"INCLINATION":50.002,"RA_OF_ASC_NODE":287.64,"ARG_OF_PERICENTER":188.5945,"MEAN_ANOMALY":171.4908,"EPHEMERIS_TYPE":0,"NORAD_CAT_ID":67061,"ELEMENT_SET_NO":999,"REV_AT_EPOCH":2913,"BSTAR":-0.00004349,"MEAN_MOTION_DOT":-0.00000144,"MEAN_MOTION_DDOT":0},{"OBJECT_NAME":"HULIANWANG DIGUI-122","OBJECT_ID":"2025-295D","EPOCH":"2026-07-14T15:31:45.640128","CLASSIFICATION_TYPE":"U","MEAN_MOTION":13.29324383,"ECCENTRICITY":0.00011371,"INCLINATION":50.0042,"RA_OF_ASC_NODE":287.0774,"ARG_OF_PERICENTER":188.1072,"MEAN_ANOMALY":171.9782,"EPHEMERIS_TYPE":0,"NORAD_CAT_ID":67062,"ELEMENT_SET_NO":999,"REV_AT_EPOCH":2915,"BSTAR":0.000090296627,"MEAN_MOTION_DOT":-8.2e-7,"MEAN_MOTION_DDOT":0},{"OBJECT_NAME":"HULIANWANG DIGUI-123","OBJECT_ID":"2025-295E","EPOCH":"2026-07-14T15:19:48.829440","CLASSIFICATION_TYPE":"U","MEAN_MOTION":13.29323956,"ECCENTRICITY":0.0001041,"INCLINATION":50.0043,"RA_OF_ASC_NODE":287.0378,"ARG_OF_PERICENTER":188.3234,"MEAN_ANOMALY":171.7621,"EPHEMERIS_TYPE":0,"NORAD_CAT_ID":67063,"ELEMENT_SET_NO":999,"REV_AT_EPOCH":2915,"BSTAR":0.000090788331,"MEAN_MOTION_DOT":-8.2e-7,"MEAN_MOTION_DDOT":0}]}
