HULIANWANG DIGUI-108    
1 66918U 25285D   26195.81692863 -.00000104  00000+0  42831-4 0  9995
2 66918  50.0057  46.9034 0000996  35.1841 324.9097 13.29325816 29736
HULIANWANG DIGUI-109    
1 66919U 25285E   26195.95881645 -.00000105  00000+0  40823-4 0  9999
2 66919  50.0083  46.3646 0000935  44.9364 315.1584 13.29316511 29768
HULIANWANG DIGUI-110    
1 66920U 25285F   26195.80026328 -.00000122  00000+0  39931-5 0  9992
2 66920  50.0125  46.9179 0000935  35.5569 324.5366 13.29326377 29737
HULIANWANG DIGUI-111    
1 66921U 25285G   26195.94230415 -.00000094  00000+0  64979-4 0  9999
2 66921  50.0130  46.3651 0000919  38.0327 322.0610 13.29325942 29759
HULIANWANG DIGUI-112    
1 66922U 25285H   26195.85872926 -.00000090  00000+0  72899-4 0  9995
2 66922  50.0095  46.5271 0000974  34.7334 325.3602 13.29325876 29744
HULIANWANG DIGUI-113    
1 66923U 25285J   26195.85047943 -.00000101  00000+0  50114-4 0  9998
2 66923  50.0101  46.5009 0000976  34.1605 325.9330 13.29324267 29746
HULIANWANG DIGUI-114    
1 66953U 25287A   26195.71690566  .00000054  00000+0  90921-4 0  9999
2 66953  86.4931 273.0648 0002291  98.9030 261.2364 13.24413349 28980
HULIANWANG DIGUI-115    
1 66954U 25287B   26195.70904118  .00000064  00000+0  11557-3 0  9998
2 66954  86.4946 273.0966 0002576  97.1928 262.9499 13.24400807 28985
HULIANWANG DIGUI-116    
1 66955U 25287C   26195.70180175  .00000067  00000+0  12203-3 0  9990
2 66955  86.4886 272.9598 0002393  97.0421 263.0985 13.24412981 28980
HULIANWANG DIGUI-117    
1 66956U 25287D   26195.76982739  .00000055  00000+0  94046-4 0  9996
2 66956  86.4946 273.0652 0001064  62.7407 297.3835 13.24412592 28991
HULIANWANG DIGUI-118    
1 66957U 25287E   26195.76226150  .00000047  00000+0  75088-4 0  9991
2 66957  86.4921 273.0087 0002329  99.0771 261.0627 13.24412079 28996
HULIANWANG DIGUI-119    
1 67059U 25295A   26195.59700521 -.00000086  00000+0  82492-4 0  9995
2 67059  50.0041 287.4772 0001115 188.2077 171.8777 13.29324492 29140
HULIANWANG DIGUI-120    
1 67060U 25295B   26195.50512877 -.00000109  00000+0  33015-4 0  9996
2 67060  50.0058 287.6694 0001207 189.2261 170.8590 13.29324443 29130
HULIANWANG DIGUI-121    
1 67061U 25295C   26195.51347809 -.00000144  00000+0 -43490-4 0  9997
2 67061  50.0020 287.6400 0001150 188.5945 171.4908 13.29325564 29138
HULIANWANG DIGUI-122    
1 67062U 25295D   26195.64705602 -.00000082  00000+0  90297-4 0  9998
2 67062  50.0042 287.0774 0001137 188.1072 171.9782 13.29324383 29158
HULIANWANG DIGUI-123    
1 67063U 25295E   26195.63875960 -.00000082  00000+0  90788-4 0  9998
2 67063  50.0043 287.0378 0001041 188.3234 171.7621 13.29323956 29151
